{
  "type": "FeatureCollection",
  "features": [
    {
      "type": "Feature",
      "properties": {
        "norad_id": 27954,
        "name": "GALAXY 13 (HORIZONS-1)",
        "group": "intelsat",
        "lat": -0.021283230611566693,
        "lon": -93.5937169403067,
        "alt_km": 35778.83113466712,
        "timestamp": "2025-12-07T22:37:42.750389+00:00",
        "meta_object_name": "GALAXY 13 (HORIZONS-1)",
        "meta_object_id": "2003-044A",
        "meta_epoch": "2025-12-07T06:52:17.546880",
        "meta_mean_motion": 1.00270319,
        "meta_eccentricity": 0.00019683,
        "meta_inclination": 0.9214,
        "meta_ra_of_asc_node": 86.5406,
        "meta_arg_of_pericenter": 155.2736,
        "meta_mean_anomaly": 147.5884,
        "meta_ephemeris_type": 0,
        "meta_classification_type": "U",
        "meta_norad_cat_id": 27954,
        "meta_element_set_no": 999,
        "meta_rev_at_epoch": 4464,
        "meta_bstar": 0,
        "meta_mean_motion_dot": 1.37e-06,
        "meta_mean_motion_ddot": 0,
        "tle_line1": "1 27954U 03044A   25341.28631420  .00000137  00000+0  00000+0 0  9998",
        "tle_line2": "2 27954   0.9214  86.5406 0001968 155.2736 147.5884  1.00270319 44645"
      },
      "geometry": {
        "type": "Point",
        "coordinates": [
          -93.5937169403067,
          -0.021283230611566693
        ]
      }
    },
    {
      "type": "Feature",
      "properties": {
        "norad_id": 28358,
        "name": "INTELSAT 10-02",
        "group": "intelsat",
        "lat": 0.011125972572149583,
        "lon": 55.403414676453174,
        "alt_km": 35789.651905539016,
        "timestamp": "2025-12-07T22:37:42.750402+00:00",
        "meta_object_name": "INTELSAT 10-02",
        "meta_object_id": "2004-022A",
        "meta_epoch": "2025-12-07T06:46:54.348672",
        "meta_mean_motion": 1.00270043,
        "meta_eccentricity": 0.00011192,
        "meta_inclination": 0.0344,
        "meta_ra_of_asc_node": 71.5199,
        "meta_arg_of_pericenter": 213.0136,
        "meta_mean_anomaly": 252.518,
        "meta_ephemeris_type": 0,
        "meta_classification_type": "U",
        "meta_norad_cat_id": 28358,
        "meta_element_set_no": 999,
        "meta_rev_at_epoch": 7863,
        "meta_bstar": 0,
        "meta_mean_motion_dot": -7e-08,
        "meta_mean_motion_ddot": 0,
        "tle_line1": "1 28358U 04022A   25341.28257348 -.00000007  00000+0  00000+0 0  9994",
        "tle_line2": "2 28358   0.0344  71.5199 0001119 213.0136 252.5180  1.00270043 78633"
      },
      "geometry": {
        "type": "Point",
        "coordinates": [
          55.403414676453174,
          0.011125972572149583
        ]
      }
    },
    {
      "type": "Feature",
      "properties": {
        "norad_id": 28626,
        "name": "XM-3 (RHYTHM)",
        "group": "intelsat",
        "lat": 0.1345977789651967,
        "lon": -166.539627947771,
        "alt_km": 36163.99617801551,
        "timestamp": "2025-12-07T22:37:42.750415+00:00",
        "meta_object_name": "XM-3 (RHYTHM)",
        "meta_object_id": "2005-008A",
        "meta_epoch": "2025-12-07T07:27:05.499648",
        "meta_mean_motion": 0.98954379,
        "meta_eccentricity": 0.00012317,
        "meta_inclination": 0.1603,
        "meta_ra_of_asc_node": 81.0699,
        "meta_arg_of_pericenter": 261.0026,
        "meta_mean_anomaly": 346.1224,
        "meta_ephemeris_type": 0,
        "meta_classification_type": "U",
        "meta_norad_cat_id": 28626,
        "meta_element_set_no": 999,
        "meta_rev_at_epoch": 4069,
        "meta_bstar": 0,
        "meta_mean_motion_dot": -2.66e-06,
        "meta_mean_motion_ddot": 0,
        "tle_line1": "1 28626U 05008A   25341.31048032 -.00000266  00000+0  00000+0 0  9996",
        "tle_line2": "2 28626   0.1603  81.0699 0001231 261.0026 346.1224  0.98954379 40698"
      },
      "geometry": {
        "type": "Point",
        "coordinates": [
          -166.539627947771,
          0.1345977789651967
        ]
      }
    },
    {
      "type": "Feature",
      "properties": {
        "norad_id": 28659,
        "name": "DIRECTV 8",
        "group": "intelsat",
        "lat": -0.029759518953790018,
        "lon": -62.64611360877194,
        "alt_km": 35775.2273920996,
        "timestamp": "2025-12-07T22:37:42.750427+00:00",
        "meta_object_name": "DIRECTV 8",
        "meta_object_id": "2005-019A",
        "meta_epoch": "2025-12-07T08:12:59.085792",
        "meta_mean_motion": 1.00271332,
        "meta_eccentricity": 0.0003248,
        "meta_inclination": 0.0167,
        "meta_ra_of_asc_node": 348.7889,
        "meta_arg_of_pericenter": 271.3378,
        "meta_mean_anomaly": 180.438,
        "meta_ephemeris_type": 0,
        "meta_classification_type": "U",
        "meta_norad_cat_id": 28659,
        "meta_element_set_no": 999,
        "meta_rev_at_epoch": 7514,
        "meta_bstar": 0,
        "meta_mean_motion_dot": 6e-08,
        "meta_mean_motion_ddot": 0,
        "tle_line1": "1 28659U 05019A   25341.34235053  .00000006  00000+0  00000+0 0  9999",
        "tle_line2": "2 28659   0.0167 348.7889 0003248 271.3378 180.4380  1.00271332 75141"
      },
      "geometry": {
        "type": "Point",
        "coordinates": [
          -62.64611360877194,
          -0.029759518953790018
        ]
      }
    },
    {
      "type": "Feature",
      "properties": {
        "norad_id": 28702,
        "name": "GALAXY 28 (G-28)",
        "group": "intelsat",
        "lat": -2.5787742760014636,
        "lon": -32.296615789395254,
        "alt_km": 35782.728313809625,
        "timestamp": "2025-12-07T22:37:42.750439+00:00",
        "meta_object_name": "GALAXY 28 (G-28)",
        "meta_object_id": "2005-022A",
        "meta_epoch": "2025-12-07T07:31:12.976032",
        "meta_mean_motion": 1.00271565,
        "meta_eccentricity": 0.00026545,
        "meta_inclination": 2.8047,
        "meta_ra_of_asc_node": 81.3453,
        "meta_arg_of_pericenter": 176.0467,
        "meta_mean_anomaly": 203.0653,
        "meta_ephemeris_type": 0,
        "meta_classification_type": "U",
        "meta_norad_cat_id": 28702,
        "meta_element_set_no": 999,
        "meta_rev_at_epoch": 5005,
        "meta_bstar": 0,
        "meta_mean_motion_dot": -1.84e-06,
        "meta_mean_motion_ddot": 0,
        "tle_line1": "1 28702U 05022A   25341.31334463 -.00000184  00000+0  00000+0 0  9992",
        "tle_line2": "2 28702   2.8047  81.3453 0002654 176.0467 203.0653  1.00271565 50050"
      },
      "geometry": {
        "type": "Point",
        "coordinates": [
          -32.296615789395254,
          -2.5787742760014636
        ]
      }
    },
    {
      "type": "Feature",
      "properties": {
        "norad_id": 29236,
        "name": "GALAXY 16 (G-16)",
        "group": "intelsat",
        "lat": 0.0006843421421806032,
        "lon": -42.599934391646805,
        "alt_km": 35778.73477349415,
        "timestamp": "2025-12-07T22:37:42.750451+00:00",
        "meta_object_name": "GALAXY 16 (G-16)",
        "meta_object_id": "2006-023A",
        "meta_epoch": "2025-12-07T07:09:32.931648",
        "meta_mean_motion": 1.00271165,
        "meta_eccentricity": 0.00030085,
        "meta_inclination": 0.0014,
        "meta_ra_of_asc_node": 246.4408,
        "meta_arg_of_pericenter": 17.2474,
        "meta_mean_anomaly": 181.0155,
        "meta_ephemeris_type": 0,
        "meta_classification_type": "U",
        "meta_norad_cat_id": 29236,
        "meta_element_set_no": 999,
        "meta_rev_at_epoch": 7104,
        "meta_bstar": 0,
        "meta_mean_motion_dot": -1.22e-06,
        "meta_mean_motion_ddot": 0,
        "tle_line1": "1 29236U 06023A   25341.29829782 -.00000122  00000+0  00000+0 0  9999",
        "tle_line2": "2 29236   0.0014 246.4408 0003008  17.2474 181.0155  1.00271165 71049"
      },
      "geometry": {
        "type": "Point",
        "coordinates": [
          -42.599934391646805,
          0.0006843421421806032
        ]
      }
    },
    {
      "type": "Feature",
      "properties": {
        "norad_id": 29494,
        "name": "DIRECTV 9S",
        "group": "intelsat",
        "lat": -1.5290485145921866,
        "lon": -44.81388061520659,
        "alt_km": 35779.12821899717,
        "timestamp": "2025-12-07T22:37:42.750463+00:00",
        "meta_object_name": "DIRECTV 9S",
        "meta_object_id": "2006-043A",
        "meta_epoch": "2025-12-07T07:19:24.275712",
        "meta_mean_motion": 1.00270561,
        "meta_eccentricity": 0.0003243,
        "meta_inclination": 1.9257,
        "meta_ra_of_asc_node": 83.265,
        "meta_arg_of_pericenter": 175.0328,
        "meta_mean_anomaly": 186.6729,
        "meta_ephemeris_type": 0,
        "meta_classification_type": "U",
        "meta_norad_cat_id": 29494,
        "meta_element_set_no": 999,
        "meta_rev_at_epoch": 4946,
        "meta_bstar": 0,
        "meta_mean_motion_dot": -1.09e-06,
        "meta_mean_motion_ddot": 0,
        "tle_line1": "1 29494U 06043A   25341.30514208 -.00000109  00000+0  00000+0 0  9998",
        "tle_line2": "2 29494   1.9257  83.2650 0003243 175.0328 186.6729  1.00270561 49460"
      },
      "geometry": {
        "type": "Point",
        "coordinates": [
          -44.81388061520659,
          -1.5290485145921866
        ]
      }
    }
  ]
}